[
	{
		"id": "FEDB5573-CDF7-42B3-B0ED-387718AE7561",
		"name": "Peel Vets",
		"address": "21 Barnsley Buildings, Nornabell Street, Hull",
		"post_code": "HU8 7SH",
		"phone_number": "(01482) 174370"
	},
		{
		"id": "7F854545-D1D0-4A23-B6F5-DA56106B5D06",
		"name": "Happy Dog Groomers",
		"address": "209 Lee Street, Hull",
		"post_code": "HU8 8NR",
		"phone_number": "(01482) 466353"
		},
		{
		"id": "5302F512-618C-42CA-A0B7-D4B7945F8067",
		"name": "Claire Jenkins - Dog Walker",
		"address": "300 St Georges Road, Hull",
		"post_code": "HU3 3TP",
		"phone_number": "(01482) 304024"
		},
		{
		"id": "5E10191F-8474-4D2E-9825-6015B4135CBB",
		"name": "Hornsea Vets",
		"address": "86 Eastgate, Hornsea",
		"post_code": "HU18 1ND",
		"phone_number": "(01964) 624267"
		},
		{
		"id": "AC52C00A-D319-4DFD-B32E-899781123B64",
		"name": "Hedon Vets",
		"address": "9 Bethell Court, Hedon",
		"post_code": "HU12 8PJ",
		"phone_number": "(01964) 772166"
		},
		{
		"id": "C4F22E33-000B-4828-9820-8F1659589744",
		"name": "Beverley Vets",
		"address": "16 Browns Way, Beverley",
		"post_code": "HU17 8FQ",
		"phone_number": "(01482) 410118"
		},
		{
		"id": "9EB736A8-3245-429F-AAE8-309E0EB25C76",
		"name": "Hull Pet Shop",
		"address": "279 Coronation Road North, Hull",
		"post_code": "HU5 5RE",
		"phone_number": "(01482) 436415"
		},
		{
		"id": "AD3B9CCB-4496-45A2-92B4-6123DFB37135",
		"name": "Douglas Dog Food Suppliers",
		"address": "40 Kingsway, Cottingham",
		"post_code": "HU16 5BB",
		"phone_number": "(01482) 153037"
	}
]